ONEWEB-0196             
1 48218U 21031J   24290.35089515  .00000062  00000+0  13217-3 0  9997
2 48218  87.9007  50.7688 0001754  96.9035 263.2294 13.14501774168241
ONEWEB-0183             
1 48219U 21031K   24290.40161773  .00000051  00000+0  10268-3 0  9992
2 48219  87.9007  50.7744 0001473  96.0010 264.1287 13.14500467168348
ONEWEB-0185             
1 48220U 21031L   24290.35168733  .00000006  00000+0 -17026-4 0  9992
2 48220  87.9006  50.7551 0001518  91.0736 269.0568 13.14502883168266
ONEWEB-0187             
1 48221U 21031M   24290.32155319  .00000111  00000+0  26489-3 0  9994
2 48221  87.9007  50.7960 0001554  96.6611 263.4696 13.14501126168275
ONEWEB-0192             
1 48222U 21031N   24290.37785526 -.00000102  00000+0 -31028-3 0  9996
2 48222  87.9007  50.7823 0001798  96.4155 263.7179 13.14502640168197
ONEWEB-0219             
1 48223U 21031P   24290.35722322 -.00000522  00000+0 -14437-2 0  9990
2 48223  87.9007  50.7595 0001626  93.2744 266.8572 13.14503155168398
ONEWEB-0202             
1 48224U 21031Q   24290.33820837  .00000206  00000+0  52219-3 0  9997
2 48224  87.9006  50.7812 0002175  78.9660 281.1714 13.14501917168377
ONEWEB-0204             
1 48225U 21031R   24290.52452211 -.00000572  00000+0 -15768-2 0  9991
2 48225  87.9005  50.7564 0001391 109.9467 250.1812 13.14503515168292
